H1 CPF 01  gfz 2022 03 24 01  5831 terrasarx 
H2 0702601  6201 31698    2022 03 24 00 59 42 2022 03 29 00 00 42   120 1 1  0 0 0
H9
10 0 59662  69822.000000  0   -1172151.930   -504535.406   6758403.562
10 0 59662  69942.000000  0   -2002676.783   -150733.763   6578460.291
10 0 59662  70062.000000  0   -2791915.316    219872.365   6282902.204
10 0 59662  70182.000000  0   -3525850.756    599969.528   5876891.485
10 0 59662  70302.000000  0   -4191550.834    981838.473   5367528.798
10 0 59662  70422.000000  0   -4777401.068   1357508.728   4763735.178
10 0 59662  70542.000000  0   -5273314.717   1718923.342   4076101.294
10 0 59662  70662.000000  0   -5670914.754   2058109.539   3316704.939
10 0 59662  70782.000000  0   -5963683.539   2367351.888   2498900.669
10 0 59662  70902.000000  0   -6147077.984   2639364.150   1637084.365
10 0 59662  71022.000000  0   -6218606.888   2867455.972    746435.491
10 0 59662  71142.000000  0   -6177866.032   3045689.436   -157358.004
10 0 59662  71262.000000  0   -6026531.111   3169021.472  -1058384.430
10 0 59662  71382.000000  0   -5768308.812   3233428.108  -1940797.421
10 0 59662  71502.000000  0   -5408847.010   3236008.416  -2789103.683
10 0 59662  71622.000000  0   -4955605.398   3175064.168  -3588441.221
10 0 59662  71742.000000  0   -4417692.302   3050154.351  -4324842.231
10 0 59662  71862.000000  0   -3805672.021   2862123.444  -4985475.069
10 0 59662  71982.000000  0   -3131348.556   2613103.226  -5558861.763
10 0 59662  72102.000000  0   -2407532.297   2306489.533  -6035067.691
10 0 59662  72222.000000  0   -1647792.950   1946894.548  -6405864.255
10 0 59662  72342.000000  0    -866203.399   1540074.695  -6664858.788
10 0 59662  72462.000000  0     -77082.072   1092837.444  -6807593.687
10 0 59662  72582.000000  0     705263.679    612928.036  -6831614.248
10 0 59662  72702.000000  0    1466790.502    108898.250  -6736508.187
10 0 59662  72822.000000  0    2193966.466   -410042.998  -6523911.482
10 0 59662  72942.000000  0    2874005.655   -934193.337  -6197482.970
10 0 59662  73062.000000  0    3495090.281  -1453533.576  -5762848.062
10 0 59662  73182.000000  0    4046575.025  -1957914.012  -5227511.747
10 0 59662  73302.000000  0    4519173.256  -2437250.448  -4600740.879
10 0 59662  73422.000000  0    4905118.935  -2881724.727  -3893414.188
10 0 59662  73542.000000  0    5198301.651  -3281985.330  -3117843.268
10 0 59662  73662.000000  0    5394372.875  -3629344.495  -2287565.405
10 0 59662  73782.000000  0    5490818.944  -3915967.064  -1417110.139
10 0 59662  73902.000000  0    5486998.374  -4135046.622   -521744.763
10 0 59662  74022.000000  0    5384142.382  -4280964.248    382797.439
10 0 59662  74142.000000  0    5185317.595  -4349425.797   1280600.920
10 0 59662  74262.000000  0    4895350.162  -4337572.802   2155857.048
10 0 59662  74382.000000  0    4520714.624  -4244063.356   2993151.449
10 0 59662  74502.000000  0    4069390.618  -4069122.056   3777742.492
10 0 59662  74622.000000  0    3550691.170  -3814558.932   4495826.599
10 0 59662  74742.000000  0    2975065.296  -3483755.218   5134784.433
10 0 59662  74862.000000  0    2353882.520  -3081616.790   5683401.894
10 0 59662  74982.000000  0    1699203.582  -2614497.626   6132064.673
10 0 59662  75102.000000  0    1023541.851  -2090094.743   6472921.035
10 0 59662  75222.000000  0     339621.847  -1517317.860   6700013.017
10 0 59662  75342.000000  0    -339861.225   -906135.544   6809374.684
10 0 59662  75462.000000  0   -1002476.359   -267400.053   6799096.699
10 0 59662  75582.000000  0   -1636283.069    387345.242   6669357.326
10 0 59662  75702.000000  0   -2230045.781   1046073.933   6422419.571
10 0 59662  75822.000000  0   -2773433.012   1696496.489   6062594.306
10 0 59662  75942.000000  0   -3257198.247   2326288.797   5596170.012
10 0 59662  76062.000000  0   -3673340.557   2923326.531   5031309.723
10 0 59662  76182.000000  0   -4015241.540   3475920.751   4377913.799
10 0 59662  76302.000000  0   -4277775.739   3973049.966   3647451.483
10 0 59662  76422.000000  0   -4457392.445   4404584.651   2852762.628
10 0 59662  76542.000000  0   -4552165.509   4761498.690   2007831.488
10 0 59662  76662.000000  0   -4561809.665   5036061.985   1127537.136
10 0 59662  76782.000000  0   -4487664.278   5222008.542    227385.810
10 0 59662  76902.000000  0   -4332644.811   5314677.632   -676769.390
10 0 59662  77022.000000  0   -4101161.411   5311124.261  -1569018.282
10 0 59662  77142.000000  0   -3799005.113   5210191.130  -2433683.369
10 0 59662  77262.000000  0   -3433208.377   5012546.673  -3255601.719
10 0 59662  77382.000000  0   -3011882.029   4720684.216  -4020395.511
10 0 59662  77502.000000  0   -2544034.100   4338884.604  -4714722.643
10 0 59662  77622.000000  0   -2039375.587   3873145.317  -5326504.012
10 0 59662  77742.000000  0   -1508118.640   3331079.226  -5845125.877
10 0 59662  77862.000000  0    -960770.044   2721782.779  -6261615.344
10 0 59662  77982.000000  0    -407924.458   2055677.134  -6568784.429
10 0 59662  78102.000000  0     139937.507   1344327.608  -6761342.249
10 0 59662  78222.000000  0     672642.905    600243.700  -6835976.979
10 0 59662  78342.000000  0    1180511.215   -163337.108  -6791407.452
10 0 59662  78462.000000  0    1654526.273   -932680.588  -6628401.780
10 0 59662  78582.000000  0    2086491.930  -1693796.336  -6349764.524
10 0 59662  78702.000000  0    2469171.561  -2432685.518  -5960293.982
10 0 59662  78822.000000  0    2796408.804  -3135593.176  -5466709.575
10 0 59662  78942.000000  0    3063229.067  -3789264.330  -4877547.637
10 0 59662  79062.000000  0    3265917.361  -4381195.269  -4203022.511
10 0 59662  79182.000000  0    3402071.202  -4899874.623  -3454859.890
10 0 59662  79302.000000  0    3470629.949  -5335013.633  -2646103.107
10 0 59662  79422.000000  0    3471877.260  -5677759.421  -1790890.470
10 0 59662  79542.000000  0    3407416.272  -5920882.778   -904208.984
10 0 59662  79662.000000  0    3280117.844  -6058938.061     -1628.629
10 0 59662  79782.000000  0    3094041.071  -6088388.042    900977.618
10 0 59662  79902.000000  0    2854330.067  -6007692.316   1787720.240
10 0 59662  80022.000000  0    2567088.545  -5817354.934   2642983.506
10 0 59662  80142.000000  0    2239234.127  -5519929.081   3451708.648
10 0 59662  80262.000000  0    1878338.223  -5119981.474   4199664.254
10 0 59662  80382.000000  0    1492455.211  -4624017.411   4873700.657
10 0 59662  80502.000000  0    1089945.856  -4040367.556   5461982.126
10 0 59662  80622.000000  0     679297.358  -3379039.301   5954194.501
10 0 59662  80742.000000  0     268944.864  -2651535.525   6341720.623
10 0 59662  80862.000000  0    -132900.301  -1870648.393   6617784.044
10 0 59662  80982.000000  0    -518412.933  -1050231.298   6777561.097
10 0 59662  81102.000000  0    -880304.922   -204951.598   6818261.333
10 0 59662  81222.000000  0   -1211962.001    649972.562   6739173.424
10 0 59662  81342.000000  0   -1507564.183   1499045.862   6541676.440
10 0 59662  81462.000000  0   -1762187.771   2326775.717   6229217.304
10 0 59662  81582.000000  0   -1971888.036   3117954.832   5807254.476
10 0 59662  81702.000000  0   -2133760.617   3857941.828   5283167.779
10 0 59662  81822.000000  0   -2245981.334   4532935.737   4666136.515
10 0 59662  81942.000000  0   -2307823.678   5130240.033   3966984.369
10 0 59662  82062.000000  0   -2319652.899   5638509.762   3197993.217
10 0 59662  82182.000000  0   -2282896.793   6047975.545   2372687.802
10 0 59662  82302.000000  0   -2199993.708   6350639.621   1505596.276
10 0 59662  82422.000000  0   -2074318.430   6540439.442    611989.884
10 0 59662  82542.000000  0   -1910087.954   6613374.009   -292392.667
10 0 59662  82662.000000  0   -1712249.845   6567590.040  -1191630.862
10 0 59662  82782.000000  0   -1486355.060   6403424.844  -2069914.220
10 0 59662  82902.000000  0   -1238418.183   6123399.916  -2911829.539
10 0 59662  83022.000000  0    -974770.925   5732172.144  -3702634.252
10 0 59662  83142.000000  0    -701912.248   5236445.981  -4428515.239
10 0 59662  83262.000000  0    -426358.568   4644846.197  -5076827.714
10 0 59662  83382.000000  0    -154497.050   3967756.895  -5636309.447
10 0 59662  83502.000000  0     107554.831   3217129.451  -6097268.635
10 0 59662  83622.000000  0     354079.911   2406263.374  -6451741.125
10 0 59662  83742.000000  0     579879.242   1549567.140  -6693615.852
10 0 59662  83862.000000  0     780376.491    662303.049  -6818730.441
10 0 59662  83982.000000  0     951706.475   -239681.351  -6824935.068
10 0 59662  84102.000000  0    1090786.773  -1140231.147  -6712124.928
10 0 59662  84222.000000  0    1195371.397  -2023165.969  -6482240.039
10 0 59662  84342.000000  0    1264086.503  -2872562.269  -6139235.927
10 0 59662  84462.000000  0    1296448.003  -3673035.663  -5689025.037
10 0 59662  84582.000000  0    1292858.854  -4410019.453  -5139384.715
10 0 59662  84702.000000  0    1254588.120  -5070030.673  -4499832.924
10 0 59662  84822.000000  0    1183731.058  -5640922.061  -3781475.336
10 0 59662  84942.000000  0    1083149.951  -6112114.939  -2996821.476
10 0 59662  85062.000000  0     956397.860  -6474806.177  -2159573.303
10 0 59662  85182.000000  0     807626.613  -6722145.375  -1284388.849
10 0 59662  85302.000000  0     641480.051  -6849376.264   -386623.980
10 0 59662  85422.000000  0     462975.504  -6853937.388    517941.803
10 0 59662  85542.000000  0     277376.589  -6735520.320   1413389.342
10 0 59662  85662.000000  0      90060.406  -6496083.400   2283948.835
10 0 59662  85782.000000  0     -93617.468  -6139818.974   3114287.760
10 0 59662  85902.000000  0    -268456.709  -5673073.355   3889789.448
10 0 59662  86022.000000  0    -429541.549  -5104224.895   4596813.846
10 0 59662  86142.000000  0    -572361.817  -4443524.538   5222939.689
10 0 59662  86262.000000  0    -692922.752  -3702901.235   5757181.936
99
